OBJECT B                
1 51825U 22019B   25157.88902765  .00016098  00000+0  39882-3 0  9996
2 51825  97.3858 234.4952 0011279  66.5945 293.6486 15.40422022181489
